JILIN-1 03              
1 41914U 17002B   26198.59181928  .00007359  00000+0  17293-3 0  9996
2 41914  97.1951 205.2629 0007761  72.9301 287.2797 15.42268355526547
CARTOSAT-2D             
1 41948U 17008A   26198.58744139  .00002109  00000+0  10310-3 0  9998
2 41948  97.4084 257.3228 0006174 131.9489 228.2273 15.19294188522195
CARTOSAT-2E             
1 42767U 17036C   26198.60525387  .00002407  00000+0  11736-3 0  9998
2 42767  97.4254 257.9036 0003494 178.4650 181.6596 15.19266308502769
IRIDIUM 113             
1 42803U 17039A   26198.58966624  .00000070  00000+0  17791-4 0  9994
2 42803  86.3992 309.4724 0002145  92.9287 267.2154 14.34217647475545
NORSAT 2                
1 42828U 17042D   26198.46347991  .00004867  00000+0  21323-3 0  9995
2 42828  97.4058  11.4378 0008105 308.8921  51.1592 15.22451725492347
TECHNOSAT               
1 42829U 17042E   26198.36696889  .00001444  00000+0  10531-3 0  9995
2 42829  97.4321 354.8846 0017221 356.4575   3.6528 15.05118204491240
FLYING LAPTOP           
1 42831U 17042G   26198.64611184  .00002033  00000+0  16182-3 0  9997
2 42831  97.4818 353.0350 0019599  24.7102 335.5057 15.01322777491024
WNISAT 1R               
1 42835U 17042L   26198.40751962  .00000330  00000+0  29673-4 0  9992
2 42835  97.4819 353.4501 0010576  57.7276 302.4972 15.01860403491049
LEMUR-2-GREENBERG       
1 42837U 17042N   26198.46334878  .00009265  00000+0  30030-3 0  9997
2 42837  97.3832  18.9701 0007285 249.8308 110.2151 15.32196006493022
LEMUR-2-FURIAUS         
1 42840U 17042R   26197.49750942  .00010084  00000+0  33733-3 0  9991
2 42840  97.3778  15.8960 0005913 324.3797  35.7049 15.31157870492699
CORVUS BC2              
1 42846U 17042X   26198.41861618  .00001110  00000+0  79109-4 0  9991
2 42846  97.4093 358.6012 0013235  15.5985 344.5648 15.06462112491613
CORVUS BC1              
1 42847U 17042Y   26198.40990491  .00001496  00000+0  10483-3 0  9999
2 42847  97.4124 359.4265 0011421 352.1585   7.9462 15.06626122491649
VRSS-2                  
1 42954U 17060A   26198.58610303  .00000490  00000+0  69207-4 0  9990
2 42954  97.6492 234.9424 0017232   6.0066 354.1351 14.81239648472959
MOHAMMED VI-A           
1 43005U 17070A   26198.62699940  .00000565  00000+0  87143-4 0  9990
2 43005  97.9547 270.5374 0001234  96.4686 263.6664 14.77104745468474
FENGYUN 3D              
1 43010U 17072A   26198.59240433 -.00000304  00000+0 -12161-3 0  9993
2 43010  99.0147 173.5673 0001437   9.8804 350.2400 14.19743708449304
NOAA 20 (JPSS-1)        
1 43013U 17073A   26198.59236687  .00000022  00000+0  31242-4 0  9990
2 43013  98.7772 137.7857 0001478 121.9234 238.2086 14.19516714448782
MAKERSAT 0              
1 43016U 17073D   26198.40994390  .00011512  00000+0  30369-3 0  9999
2 43016  97.4574  81.1775 0105553 164.4001 196.0537 15.33060135471095
RADFXSAT (FOX-1B)       
1 43017U 17073E   26198.56599503  .00003831  00000+0  16851-3 0  9999
2 43017  97.4662  65.1618 0148332 223.2065 135.7454 15.13080744469987
JILIN-1 04              
1 43022U 17074A   26198.56960714  .00007883  00000+0  17982-3 0  9999
2 43022  97.4881 309.0116 0005226  94.4034 265.7811 15.43170802478953
JILIN-1 05              
1 43023U 17074B   26198.58205207  .00004375  00000+0  13412-3 0  9998
2 43023  97.4884 305.1593 0006540 118.0814 242.1091 15.34307255478663
JILIN-1 06              
1 43024U 17074C   26198.62364228  .00003340  00000+0  10390-3 0  9996
2 43024  97.4809 302.1699 0008231 126.9104 233.2894 15.34012622478500
IRIDIUM 116             
1 43072U 17083C   26198.28522066  .00000125  00000+0  37483-4 0  9998
2 43072  86.3985 309.4198 0002498  97.5580 262.5899 14.34218141448486
IRIDIUM 130             
1 43073U 17083D   26198.60235351  .00000138  00000+0  42110-4 0  9990
2 43073  86.3994 309.5657 0002315 100.5746 259.5711 14.34218480448479
LKW-2                   
1 43080U 17084A   26198.64045258  .00006336  00000+0  24375-3 0  9996
2 43080  97.1170 237.0179 0003683 114.8665 245.2958 15.26713457476331
SUPERVIEW-1 03          
1 43099U 18002A   26198.57938292  .00011233  00000+0  27053-3 0  9996
2 43099  97.3127 283.3904 0046769  72.7685 287.8672 15.40267414473044
CARTOSAT-2F             
1 43111U 18004A   26198.63791858  .00003001  00000+0  14594-3 0  9995
2 43111  97.4766 257.9727 0002371 128.9746 231.1701 15.19185932471955
LKW-3                   
1 43146U 18006A   26198.61674972  .00004593  00000+0  13446-3 0  9992
2 43146  97.6643   0.3962 0003243 170.7634 189.3669 15.35777245473388
ASNARO-2                
1 43152U 18007A   26198.61788546  .00004492  00000+0  19742-3 0  9996
2 43152  97.3974 205.0700 0001752  90.9138 269.2299 15.22409250472041
