OBJECT_NAME,OBJECT_ID,EPOCH,MEAN_MOTION,ECCENTRICITY,INCLINATION,RA_OF_ASC_NODE,ARG_OF_PERICENTER,MEAN_ANOMALY,EPHEMERIS_TYPE,CLASSIFICATION_TYPE,NORAD_CAT_ID,ELEMENT_SET_NO,REV_AT_EPOCH,BSTAR,MEAN_MOTION_DOT,MEAN_MOTION_DDOT
JILIN-1 03,2017-002B,2026-07-17T14:12:13.185792,15.42268355,.00077617,97.1951,205.2629,72.9301,287.2797,0,U,41914,999,52654,.17292729E-3,.7359E-4,0
CARTOSAT-2D,2017-008A,2026-07-17T14:05:54.936096,15.19294188,.0006174,97.4084,257.3228,131.9489,228.2273,0,U,41948,999,52219,.10309665E-3,.2109E-4,0
CARTOSAT-2E,2017-036C,2026-07-17T14:31:33.934368,15.19266308,.00034945,97.4254,257.9036,178.4650,181.6596,0,U,42767,999,50276,.11735897E-3,.2407E-4,0
IRIDIUM 113,2017-039A,2026-07-17T14:09:07.163136,14.34217647,.00021459,86.3992,309.4724,92.9287,267.2154,0,U,42803,999,47554,.17791267E-4,.7E-6,0
NORSAT 2,2017-042D,2026-07-17T11:07:24.664224,15.22451725,.00081057,97.4058,11.4378,308.8921,51.1592,0,U,42828,999,49234,.21323307E-3,.4867E-4,0
TECHNOSAT,2017-042E,2026-07-17T08:48:26.112096,15.05118204,.00172219,97.4321,354.8846,356.4575,3.6528,0,U,42829,999,49124,.10531242E-3,.1444E-4,0
FLYING LAPTOP,2017-042G,2026-07-17T15:30:24.062976,15.01322777,.00195993,97.4818,353.0350,24.7102,335.5057,0,U,42831,999,49102,.16181533E-3,.2033E-4,0
WNISAT 1R,2017-042L,2026-07-17T09:46:49.695168,15.01860403,.00105765,97.4819,353.4501,57.7276,302.4972,0,U,42835,999,49104,.29673452E-4,.33E-5,0
LEMUR-2-GREENBERG,2017-042N,2026-07-17T11:07:13.334592,15.32196006,.00072859,97.3832,18.9701,249.8308,110.2151,0,U,42837,999,49302,.30030192E-3,.9265E-4,0
LEMUR-2-FURIAUS,2017-042R,2026-07-16T11:56:24.813888,15.31157870,.0005913,97.3778,15.8960,324.3797,35.7049,0,U,42840,999,49269,.33733E-3,.10084E-3,0
CORVUS BC2,2017-042X,2026-07-17T10:02:48.437952,15.06462112,.00132352,97.4093,358.6012,15.5985,344.5648,0,U,42846,999,49161,.7910868E-4,.111E-4,0
CORVUS BC1,2017-042Y,2026-07-17T09:50:15.784224,15.06626122,.00114213,97.4124,359.4265,352.1585,7.9462,0,U,42847,999,49164,.1048319E-3,.1496E-4,0
VRSS-2,2017-060A,2026-07-17T14:03:59.301792,14.81239648,.00172322,97.6492,234.9424,6.0066,354.1351,0,U,42954,999,47295,.69206919E-4,.49E-5,0
MOHAMMED VI-A,2017-070A,2026-07-17T15:02:52.748160,14.77104745,.00012343,97.9547,270.5374,96.4686,263.6664,0,U,43005,999,46847,.8714299E-4,.565E-5,0
FENGYUN 3D,2017-072A,2026-07-17T14:13:03.734112,14.19743708,.0001437,99.0147,173.5673,9.8804,350.2400,0,U,43010,999,44930,-.12160567E-3,-.304E-5,0
NOAA 20 (JPSS-1),2017-073A,2026-07-17T14:13:00.497568,14.19516714,.00014783,98.7772,137.7857,121.9234,238.2086,0,U,43013,999,44878,.31241812E-4,.22E-6,0
MAKERSAT 0,2017-073D,2026-07-17T09:50:19.152960,15.33060135,.01055532,97.4574,81.1775,164.4001,196.0537,0,U,43016,999,47109,.30368664E-3,.11512E-3,0
RADFXSAT (FOX-1B),2017-073E,2026-07-17T13:35:01.970592,15.13080744,.01483322,97.4662,65.1618,223.2065,135.7454,0,U,43017,999,46998,.16850652E-3,.3831E-4,0
JILIN-1 04,2017-074A,2026-07-17T13:40:14.056896,15.43170802,.00052261,97.4881,309.0116,94.4034,265.7811,0,U,43022,999,47895,.17982496E-3,.7883E-4,0
JILIN-1 05,2017-074B,2026-07-17T13:58:09.298848,15.34307255,.00065404,97.4884,305.1593,118.0814,242.1091,0,U,43023,999,47866,.13412098E-3,.4375E-4,0
JILIN-1 06,2017-074C,2026-07-17T14:58:02.692992,15.34012622,.00082311,97.4809,302.1699,126.9104,233.2894,0,U,43024,999,47850,.10390464E-3,.334E-4,0
IRIDIUM 116,2017-083C,2026-07-17T06:50:43.065024,14.34218141,.0002498,86.3985,309.4198,97.5580,262.5899,0,U,43072,999,44848,.37483073E-4,.125E-5,0
IRIDIUM 130,2017-083D,2026-07-17T14:27:23.343264,14.34218480,.00023156,86.3994,309.5657,100.5746,259.5711,0,U,43073,999,44847,.42110404E-4,.138E-5,0
LKW-2,2017-084A,2026-07-17T15:22:15.102912,15.26713457,.00036834,97.1170,237.0179,114.8665,245.2958,0,U,43080,999,47633,.24374765E-3,.6336E-4,0
SUPERVIEW-1 03,2018-002A,2026-07-17T13:54:18.684288,15.40267414,.0046769,97.3127,283.3904,72.7685,287.8672,0,U,43099,999,47304,.27052706E-3,.11233E-3,0
CARTOSAT-2F,2018-004A,2026-07-17T15:18:36.165312,15.19185932,.00023712,97.4766,257.9727,128.9746,231.1701,0,U,43111,999,47195,.14593584E-3,.3001E-4,0
LKW-3,2018-006A,2026-07-17T14:48:07.175808,15.35777245,.00032438,97.6643,0.3962,170.7634,189.3669,0,U,43146,999,47338,.13446381E-3,.4593E-4,0
ASNARO-2,2018-007A,2026-07-17T14:49:45.303744,15.22409250,.00017527,97.3974,205.0700,90.9138,269.2299,0,U,43152,999,47204,.19741867E-3,.4492E-4,0
